{"type": "FeatureCollection", "features": [ {"type": "Feature", "properties": {"norad_id": 66563, "name": "STARLINK-35437", "group": "last-30-days", "lat": -32.49216054682823, "lon": 133.98246293733126, "alt_km": 346.96902681968004, "timestamp": "2025-12-03T06:58:42.033161+00:00", "meta": {"OBJECT_NAME": "STARLINK-35437", "OBJECT_ID": "2025-268G", "EPOCH": "2025-12-02T20:00:03.000384", "MEAN_MOTION": 15.76124296, "ECCENTRICITY": 0.0001433, "INCLINATION": 42.9976, "RA_OF_ASC_NODE": 179.8796, "ARG_OF_PERICENTER": 270.0493, "MEAN_ANOMALY": 320.6135, "EPHEMERIS_TYPE": 0, "CLASSIFICATION_TYPE": "U", "NORAD_CAT_ID": 66563, "ELEMENT_SET_NO": 999, "REV_AT_EPOCH": 307, "BSTAR": -0.0090935, "MEAN_MOTION_DOT": -0.01311087, "MEAN_MOTION_DDOT": 0}, "tle": {"line1": "1 66563U 25268G   25336.83336806 -.01311087  00000+0 -90935-2 0  9995", "line2": "2 66563  42.9976 179.8796 0001433 270.0493 320.6135 15.76124296  3071"}}, "geometry": {"type": "Point", "coordinates": [133.98246293733126, -32.49216054682823]}}, {"type": "Feature", "properties": {"norad_id": 66564, "name": "STARLINK-35358", "group": "last-30-days", "lat": -31.524082292204422, "lon": 135.92682580510146, "alt_km": 346.872892582498, "timestamp": "2025-12-03T06:58:42.033172+00:00", "meta": {"OBJECT_NAME": "STARLINK-35358", "OBJECT_ID": "2025-268H", "EPOCH": "2025-12-02T20:00:03.000384", "MEAN_MOTION": 15.76095697, "ECCENTRICITY": 0.00015, "INCLINATION": 42.9975, "RA_OF_ASC_NODE": 179.8751, "ARG_OF_PERICENTER": 272.8541, "MEAN_ANOMALY": 319.7521, "EPHEMERIS_TYPE": 0, "CLASSIFICATION_TYPE": "U", "NORAD_CAT_ID": 66564, "ELEMENT_SET_NO": 999, "REV_AT_EPOCH": 302, "BSTAR": -0.0089232, "MEAN_MOTION_DOT": -0.01287607, "MEAN_MOTION_DDOT": 0}, "tle": {"line1": "1 66564U 25268H   25336.83336806 -.01287607  00000+0 -89232-2 0  9994", "line2": "2 66564  42.9975 179.8751 0001500 272.8541 319.7521 15.76095697  3026"}}, "geometry": {"type": "Point", "coordinates": [135.92682580510146, -31.524082292204422]}}, {"type": "Feature", "properties": {"norad_id": 66565, "name": "STARLINK-35893", "group": "last-30-days", "lat": -30.53366111619726, "lon": 137.81825073640766, "alt_km": 346.79659700438515, "timestamp": "2025-12-03T06:58:42.033182+00:00", "meta": {"OBJECT_NAME": "STARLINK-35893", "OBJECT_ID": "2025-268J", "EPOCH": "2025-12-02T20:00:03.000384", "MEAN_MOTION": 15.76059815, "ECCENTRICITY": 0.0001534, "INCLINATION": 42.9978, "RA_OF_ASC_NODE": 179.8698, "ARG_OF_PERICENTER": 279.294, "MEAN_ANOMALY": 315.2656, "EPHEMERIS_TYPE": 0, "CLASSIFICATION_TYPE": "U", "NORAD_CAT_ID": 66565, "ELEMENT_SET_NO": 999, "REV_AT_EPOCH": 307, "BSTAR": -0.0088282, "MEAN_MOTION_DOT": -0.01273475, "MEAN_MOTION_DDOT": 0}, "tle": {"line1": "1 66565U 25268J   25336.83336806 -.01273475  00000+0 -88282-2 0  9997", "line2": "2 66565  42.9978 179.8698 0001534 279.2940 315.2656 15.76059815  3078"}}, "geometry": {"type": "Point", "coordinates": [137.81825073640766, -30.53366111619726]}}, {"type": "Feature", "properties": {"norad_id": 66566, "name": "STARLINK-35871", "group": "last-30-days", "lat": -29.508376696368224, "lon": 139.68504342297848, "alt_km": 346.77414770785435, "timestamp": "2025-12-03T06:58:42.033191+00:00", "meta": {"OBJECT_NAME": "STARLINK-35871", "OBJECT_ID": "2025-268K", "EPOCH": "2025-12-02T20:00:03.000384", "MEAN_MOTION": 15.75942256, "ECCENTRICITY": 0.0001561, "INCLINATION": 42.9979, "RA_OF_ASC_NODE": 179.8647, "ARG_OF_PERICENTER": 278.914, "MEAN_ANOMALY": 317.6637, "EPHEMERIS_TYPE": 0, "CLASSIFICATION_TYPE": "U", "NORAD_CAT_ID": 66566, "ELEMENT_SET_NO": 999, "REV_AT_EPOCH": 307, "BSTAR": -0.0080574, "MEAN_MOTION_DOT": -0.0114829, "MEAN_MOTION_DDOT": 0}, "tle": {"line1": "1 66566U 25268K   25336.83336806 -.01148290  00000+0 -80574-2 0  9990", "line2": "2 66566  42.9979 179.8647 0001561 278.9140 317.6637 15.75942256  3076"}}, "geometry": {"type": "Point", "coordinates": [139.68504342297848, -29.508376696368224]}}, {"type": "Feature", "properties": {"norad_id": 66567, "name": "STARLINK-35825", "group": "last-30-days", "lat": -28.467505421167225, "lon": 141.49672070080067, "alt_km": 346.9249836823956, "timestamp": "2025-12-03T06:58:42.033201+00:00", "meta": {"OBJECT_NAME": "STARLINK-35825", "OBJECT_ID": "2025-268L", "EPOCH": "2025-12-02T20:00:03.000384", "MEAN_MOTION": 15.75862328, "ECCENTRICITY": 0.0001445, "INCLINATION": 42.9979, "RA_OF_ASC_NODE": 179.8599, "ARG_OF_PERICENTER": 274.0522, "MEAN_ANOMALY": 324.5081, "EPHEMERIS_TYPE": 0, "CLASSIFICATION_TYPE": "U", "NORAD_CAT_ID": 66567, "ELEMENT_SET_NO": 999, "REV_AT_EPOCH": 307, "BSTAR": -0.0076601, "MEAN_MOTION_DOT": -0.01093964, "MEAN_MOTION_DDOT": 0}, "tle": {"line1": "1 66567U 25268L   25336.83336806 -.01093964  00000+0 -76601-2 0  9994", "line2": "2 66567  42.9979 179.8599 0001445 274.0522 324.5081 15.75862328  3076"}}, "geometry": {"type": "Point", "coordinates": [141.49672070080067, -28.467505421167225]}}, {"type": "Feature", "properties": {"norad_id": 66568, "name": "STARLINK-35803", "group": "last-30-days", "lat": -27.386207257568948, "lon": 143.2993704603275, "alt_km": 346.8551821890542, "timestamp": "2025-12-03T06:58:42.033213+00:00", "meta": {"OBJECT_NAME": "STARLINK-35803", "OBJECT_ID": "2025-268M", "EPOCH": "2025-12-02T20:00:03.000384", "MEAN_MOTION": 15.75744659, "ECCENTRICITY": 0.0001257, "INCLINATION": 42.9978, "RA_OF_ASC_NODE": 179.8546, "ARG_OF_PERICENTER": 278.4221, "MEAN_ANOMALY": 322.1395, "EPHEMERIS_TYPE": 0, "CLASSIFICATION_TYPE": "U", "NORAD_CAT_ID": 66568, "ELEMENT_SET_NO": 999, "REV_AT_EPOCH": 307, "BSTAR": -0.0066133, "MEAN_MOTION_DOT": -0.00938467, "MEAN_MOTION_DDOT": 0}, "tle": {"line1": "1 66568U 25268M   25336.83336806 -.00938467  00000+0 -66133-2 0  9999", "line2": "2 66568  42.9978 179.8546 0001257 278.4221 322.1395 15.75744659  3071"}}, "geometry": {"type": "Point", "coordinates": [143.2993704603275, -27.386207257568948]}}, {"type": "Feature", "properties": {"norad_id": 66569, "name": "STARLINK-35835", "group": "last-30-days", "lat": -26.288043704646793, "lon": 145.05782119777697, "alt_km": 346.804013632277, "timestamp": "2025-12-03T06:58:42.033223+00:00", "meta": {"OBJECT_NAME": "STARLINK-35835", "OBJECT_ID": "2025-268N", "EPOCH": "2025-12-02T20:00:03.000384", "MEAN_MOTION": 15.75703264, "ECCENTRICITY": 0.0001432, "INCLINATION": 42.9979, "RA_OF_ASC_NODE": 179.8497, "ARG_OF_PERICENTER": 270.5701, "MEAN_ANOMALY": 331.9379, "EPHEMERIS_TYPE": 0, "CLASSIFICATION_TYPE": "U", "NORAD_CAT_ID": 66569, "ELEMENT_SET_NO": 999, "REV_AT_EPOCH": 307, "BSTAR": -0.0062912, "MEAN_MOTION_DOT": -0.00895863, "MEAN_MOTION_DDOT": 0}, "tle": {"line1": "1 66569U 25268N   25336.83336806 -.00895863  00000+0 -62912-2 0  9993", "line2": "2 66569  42.9979 179.8497 0001432 270.5701 331.9379 15.75703264  3076"}}, "geometry": {"type": "Point", "coordinates": [145.05782119777697, -26.288043704646793]}}, {"type": "Feature", "properties": {"norad_id": 66570, "name": "STARLINK-35834", "group": "last-30-days", "lat": -25.17451884852943, "lon": 146.77430940648412, "alt_km": 346.43160308101506, "timestamp": "2025-12-03T06:58:42.033233+00:00", "meta": {"OBJECT_NAME": "STARLINK-35834", "OBJECT_ID": "2025-268P", "EPOCH": "2025-12-02T20:00:03.000384", "MEAN_MOTION": 15.75599326, "ECCENTRICITY": 0.0001703, "INCLINATION": 42.998, "RA_OF_ASC_NODE": 179.8449, "ARG_OF_PERICENTER": 281.5885, "MEAN_ANOMALY": 322.9041, "EPHEMERIS_TYPE": 0, "CLASSIFICATION_TYPE": "U", "NORAD_CAT_ID": 66570, "ELEMENT_SET_NO": 999, "REV_AT_EPOCH": 307, "BSTAR": -0.0054706, "MEAN_MOTION_DOT": -0.00785898, "MEAN_MOTION_DDOT": 0}, "tle": {"line1": "1 66570U 25268P   25336.83336806 -.00785898  00000+0 -54706-2 0  9993", "line2": "2 66570  42.9980 179.8449 0001703 281.5885 322.9041 15.75599326  3071"}}, "geometry": {"type": "Point", "coordinates": [146.77430940648412, -25.17451884852943]}}, {"type": "Feature", "properties": {"norad_id": 66571, "name": "STARLINK-35836", "group": "last-30-days", "lat": -24.04150831795689, "lon": 148.45896862973518, "alt_km": 346.6160795916039, "timestamp": "2025-12-03T06:58:42.033244+00:00", "meta": {"OBJECT_NAME": "STARLINK-35836", "OBJECT_ID": "2025-268Q", "EPOCH": "2025-12-02T20:00:03.000384", "MEAN_MOTION": 15.75489415, "ECCENTRICITY": 0.0001323, "INCLINATION": 42.998, "RA_OF_ASC_NODE": 179.8399, "ARG_OF_PERICENTER": 275.5502, "MEAN_ANOMALY": 330.928, "EPHEMERIS_TYPE": 0, "CLASSIFICATION_TYPE": "U", "NORAD_CAT_ID": 66571, "ELEMENT_SET_NO": 999, "REV_AT_EPOCH": 307, "BSTAR": -0.0045712, "MEAN_MOTION_DOT": -0.00663055, "MEAN_MOTION_DDOT": 0}, "tle": {"line1": "1 66571U 25268Q   25336.83336806 -.00663055  00000+0 -45712-2 0  9991", "line2": "2 66571  42.9980 179.8399 0001323 275.5502 330.9280 15.75489415  3074"}}, "geometry": {"type": "Point", "coordinates": [148.45896862973518, -24.04150831795689]}}, {"type": "Feature", "properties": {"norad_id": 66572, "name": "STARLINK-35870", "group": "last-30-days", "lat": -22.909966897531216, "lon": 150.08714106440667, "alt_km": 346.42204337236944, "timestamp": "2025-12-03T06:58:42.033256+00:00", "meta": {"OBJECT_NAME": "STARLINK-35870", "OBJECT_ID": "2025-268R", "EPOCH": "2025-12-02T20:00:03.000384", "MEAN_MOTION": 15.75380188, "ECCENTRICITY": 0.0002126, "INCLINATION": 42.9982, "RA_OF_ASC_NODE": 179.8358, "ARG_OF_PERICENTER": 268.3985, "MEAN_ANOMALY": 340.0626, "EPHEMERIS_TYPE": 0, "CLASSIFICATION_TYPE": "U", "NORAD_CAT_ID": 66572, "ELEMENT_SET_NO": 999, "REV_AT_EPOCH": 307, "BSTAR": -0.0040186, "MEAN_MOTION_DOT": -0.00585604, "MEAN_MOTION_DDOT": 0}, "tle": {"line1": "1 66572U 25268R   25336.83336806 -.00585604  00000+0 -40186-2 0  9995", "line2": "2 66572  42.9982 179.8358 0002126 268.3985 340.0626 15.75380188  3072"}}, "geometry": {"type": "Point", "coordinates": [150.08714106440667, -22.909966897531216]}}]}